{
  "type": "FeatureCollection",
  "features": [
    {
      "type": "Feature",
      "properties": {
        "norad_id": 31307,
        "name": "GALAXY 17 (G-17)",
        "group": "intelsat",
        "lat": -0.6727582379420298,
        "lon": 66.1582661808467,
        "alt_km": 35811.85389269339,
        "timestamp": "2025-12-09T04:51:47.175761+00:00",
        "meta_object_name": "GALAXY 17 (G-17)",
        "meta_object_id": "2007-016B",
        "meta_epoch": "2025-12-08T14:54:44.727264",
        "meta_mean_motion": 1.00272609,
        "meta_eccentricity": 0.0006117,
        "meta_inclination": 2.4895,
        "meta_ra_of_asc_node": 82.3282,
        "meta_arg_of_pericenter": 161.5836,
        "meta_mean_anomaly": 332.4014,
        "meta_ephemeris_type": 0,
        "meta_classification_type": "U",
        "meta_norad_cat_id": 31307,
        "meta_element_set_no": 999,
        "meta_rev_at_epoch": 6789,
        "meta_bstar": 0,
        "meta_mean_motion_dot": -2.05e-06,
        "meta_mean_motion_ddot": 0,
        "tle_line1": "1 31307U 07016B   25342.62135101 -.00000205  00000+0  00000+0 0  9999",
        "tle_line2": "2 31307   2.4895  82.3282 0006117 161.5836 332.4014  1.00272609 67898"
      },
      "geometry": {
        "type": "Point",
        "coordinates": [
          66.1582661808467,
          -0.6727582379420298
        ]
      }
    },
    {
      "type": "Feature",
      "properties": {
        "norad_id": 31862,
        "name": "DIRECTV 10",
        "group": "intelsat",
        "lat": -0.004228578896135233,
        "lon": 48.35899481502721,
        "alt_km": 35787.64849568061,
        "timestamp": "2025-12-09T04:51:47.175773+00:00",
        "meta_object_name": "DIRECTV 10",
        "meta_object_id": "2007-032A",
        "meta_epoch": "2025-12-08T14:49:37.716096",
        "meta_mean_motion": 1.00272413,
        "meta_eccentricity": 4.12e-05,
        "meta_inclination": 0.0164,
        "meta_ra_of_asc_node": 163.1981,
        "meta_arg_of_pericenter": 60.4028,
        "meta_mean_anomaly": 333.6449,
        "meta_ephemeris_type": 0,
        "meta_classification_type": "U",
        "meta_norad_cat_id": 31862,
        "meta_element_set_no": 999,
        "meta_rev_at_epoch": 4368,
        "meta_bstar": 0,
        "meta_mean_motion_dot": -1.01e-06,
        "meta_mean_motion_ddot": 0,
        "tle_line1": "1 31862U 07032A   25342.61779764 -.00000101  00000+0  00000+0 0  9996",
        "tle_line2": "2 31862   0.0164 163.1981 0000412  60.4028 333.6449  1.00272413 43682"
      },
      "geometry": {
        "type": "Point",
        "coordinates": [
          48.35899481502721,
          -0.004228578896135233
        ]
      }
    },
    {
      "type": "Feature",
      "properties": {
        "norad_id": 32253,
        "name": "INTELSAT 11 (IS-11)",
        "group": "intelsat",
        "lat": -2.286535486608017,
        "lon": 32.4990615401674,
        "alt_km": 36165.83894868553,
        "timestamp": "2025-12-09T04:51:47.175785+00:00",
        "meta_object_name": "INTELSAT 11 (IS-11)",
        "meta_object_id": "2007-044B",
        "meta_epoch": "2025-12-08T16:28:28.250112",
        "meta_mean_motion": 0.99047638,
        "meta_eccentricity": 0.0009151,
        "meta_inclination": 3.0696,
        "meta_ra_of_asc_node": 81.0191,
        "meta_arg_of_pericenter": 164.2343,
        "meta_mean_anomaly": 323.0852,
        "meta_ephemeris_type": 0,
        "meta_classification_type": "U",
        "meta_norad_cat_id": 32253,
        "meta_element_set_no": 999,
        "meta_rev_at_epoch": 6656,
        "meta_bstar": 0,
        "meta_mean_motion_dot": 6.8e-07,
        "meta_mean_motion_ddot": 0,
        "tle_line1": "1 32253U 07044B   25342.68643808  .00000068  00000+0  00000+0 0  9991",
        "tle_line2": "2 32253   3.0696  81.0191 0009151 164.2343 323.0852  0.99047638 66562"
      },
      "geometry": {
        "type": "Point",
        "coordinates": [
          32.4990615401674,
          -2.286535486608017
        ]
      }
    },
    {
      "type": "Feature",
      "properties": {
        "norad_id": 32388,
        "name": "HORIZONS-2",
        "group": "intelsat",
        "lat": -0.18545405402545018,
        "lon": 77.3757140652834,
        "alt_km": 35807.35953763372,
        "timestamp": "2025-12-09T04:51:47.175797+00:00",
        "meta_object_name": "HORIZONS-2",
        "meta_object_id": "2007-063B",
        "meta_epoch": "2025-12-08T18:23:18.352032",
        "meta_mean_motion": 1.00270651,
        "meta_eccentricity": 0.0005041,
        "meta_inclination": 2.1111,
        "meta_ra_of_asc_node": 83.001,
        "meta_arg_of_pericenter": 186.2758,
        "meta_mean_anomaly": 10.5368,
        "meta_ephemeris_type": 0,
        "meta_classification_type": "U",
        "meta_norad_cat_id": 32388,
        "meta_element_set_no": 999,
        "meta_rev_at_epoch": 6590,
        "meta_bstar": 0,
        "meta_mean_motion_dot": -2.52e-06,
        "meta_mean_motion_ddot": 0,
        "tle_line1": "1 32388U 07063B   25342.76618463 -.00000252  00000+0  00000+0 0  9995",
        "tle_line2": "2 32388   2.1111  83.0010 0005041 186.2758  10.5368  1.00270651 65906"
      },
      "geometry": {
        "type": "Point",
        "coordinates": [
          77.3757140652834,
          -0.18545405402545018
        ]
      }
    },
    {
      "type": "Feature",
      "properties": {
        "norad_id": 32729,
        "name": "DIRECTV 11",
        "group": "intelsat",
        "lat": 0.005869227443432666,
        "lon": 51.94806070232375,
        "alt_km": 35787.764342990245,
        "timestamp": "2025-12-09T04:51:47.175808+00:00",
        "meta_object_name": "DIRECTV 11",
        "meta_object_id": "2008-013A",
        "meta_epoch": "2025-12-08T14:50:30.133248",
        "meta_mean_motion": 1.00272881,
        "meta_eccentricity": 5.27e-05,
        "meta_inclination": 0.0228,
        "meta_ra_of_asc_node": 202.5194,
        "meta_arg_of_pericenter": 2.0786,
        "meta_mean_anomaly": 356.4573,
        "meta_ephemeris_type": 0,
        "meta_classification_type": "U",
        "meta_norad_cat_id": 32729,
        "meta_element_set_no": 999,
        "meta_rev_at_epoch": 4368,
        "meta_bstar": 0,
        "meta_mean_motion_dot": -1.24e-06,
        "meta_mean_motion_ddot": 0,
        "tle_line1": "1 32729U 08013A   25342.61840432 -.00000124  00000+0  00000+0 0  9995",
        "tle_line2": "2 32729   0.0228 202.5194 0000527   2.0786 356.4573  1.00272881 43680"
      },
      "geometry": {
        "type": "Point",
        "coordinates": [
          51.94806070232375,
          0.005869227443432666
        ]
      }
    },
    {
      "type": "Feature",
      "properties": {
        "norad_id": 32951,
        "name": "GALAXY 18 (G-18)",
        "group": "intelsat",
        "lat": 0.025936705386530295,
        "lon": 28.159088685896812,
        "alt_km": 35794.29591534349,
        "timestamp": "2025-12-09T04:51:47.175820+00:00",
        "meta_object_name": "GALAXY 18 (G-18)",
        "meta_object_id": "2008-024A",
        "meta_epoch": "2025-12-08T16:26:20.954400",
        "meta_mean_motion": 1.00272367,
        "meta_eccentricity": 0.0003206,
        "meta_inclination": 0.0146,
        "meta_ra_of_asc_node": 291.0738,
        "meta_arg_of_pericenter": 328.7895,
        "meta_mean_anomaly": 301.3998,
        "meta_ephemeris_type": 0,
        "meta_classification_type": "U",
        "meta_norad_cat_id": 32951,
        "meta_element_set_no": 999,
        "meta_rev_at_epoch": 4394,
        "meta_bstar": 0,
        "meta_mean_motion_dot": 2.7e-07,
        "meta_mean_motion_ddot": 0,
        "tle_line1": "1 32951U 08024A   25342.68496475  .00000027  00000+0  00000+0 0  9996",
        "tle_line2": "2 32951   0.0146 291.0738 0003206 328.7895 301.3998  1.00272367 43947"
      },
      "geometry": {
        "type": "Point",
        "coordinates": [
          28.159088685896812,
          0.025936705386530295
        ]
      }
    },
    {
      "type": "Feature",
      "properties": {
        "norad_id": 33153,
        "name": "INTELSAT 25 (IS-25)",
        "group": "intelsat",
        "lat": 1.3484133611907807,
        "lon": 119.59059290813467,
        "alt_km": 35805.49726154008,
        "timestamp": "2025-12-09T04:51:47.175832+00:00",
        "meta_object_name": "INTELSAT 25 (IS-25)",
        "meta_object_id": "2008-034A",
        "meta_epoch": "2025-12-08T18:35:24.691776",
        "meta_mean_motion": 1.00270394,
        "meta_eccentricity": 0.0005411,
        "meta_inclination": 2.2174,
        "meta_ra_of_asc_node": 82.6898,
        "meta_arg_of_pericenter": 183.7497,
        "meta_mean_anomaly": 58.6939,
        "meta_ephemeris_type": 0,
        "meta_classification_type": "U",
        "meta_norad_cat_id": 33153,
        "meta_element_set_no": 999,
        "meta_rev_at_epoch": 6378,
        "meta_bstar": 0,
        "meta_mean_motion_dot": -2.22e-06,
        "meta_mean_motion_ddot": 0,
        "tle_line1": "1 33153U 08034A   25342.77459134 -.00000222  00000+0  00000+0 0  9991",
        "tle_line2": "2 33153   2.2174  82.6898 0005411 183.7497  58.6939  1.00270394 63784"
      },
      "geometry": {
        "type": "Point",
        "coordinates": [
          119.59059290813467,
          1.3484133611907807
        ]
      }
    }
  ]
}